#cP2017 12 31  0  0  0.00000000      96 ORBIT IGS14 HLM  IGS
## 1982      0.00000000   900.00000000 58118 0.0000000000000
+   32   G01G02G03G04G05G06G07G08G09G10G11G12G13G14G15G16G17
+        G18G19G20G21G22G23G24G25G26G27G28G29G30G31G32  0  0
+          0  0  0  0  0  0  0  0  0  0  0  0  0  0  0  0  0
+          0  0  0  0  0  0  0  0  0  0  0  0  0  0  0  0  0
+          0  0  0  0  0  0  0  0  0  0  0  0  0  0  0  0  0
++         2  2  2  0  2  2  2  2  2  2  2  2  2  2  2  2  2
++         3  2  2  2  2  2  2  2  2  2  2  2  2  2  2  0  0
++         0  0  0  0  0  0  0  0  0  0  0  0  0  0  0  0  0
++         0  0  0  0  0  0  0  0  0  0  0  0  0  0  0  0  0
++         0  0  0  0  0  0  0  0  0  0  0  0  0  0  0  0  0
%c G  cc GPS ccc cccc cccc cccc cccc ccccc ccccc ccccc ccccc
%c cc cc ccc ccc cccc cccc cccc cccc ccccc ccccc ccccc ccccc
%f  1.2500000  1.025000000  0.00000000000  0.000000000000000
%f  0.0000000  0.000000000  0.00000000000  0.000000000000000
%i    0    0    0    0      0      0      0      0         0
%i    0    0    0    0      0      0      0      0         0
/* FINAL ORBIT COMBINATION FROM WEIGHTED AVERAGE OF:        
/* cod emr esa gfz grg jpl mit ngs sio                      
/* REFERENCED TO IGS TIME (IGST) AND TO WEIGHTED MEAN POLE: 
/* PCV:IGS14_1977 OL/AL:FES2004  NONE     Y  ORB:CMB CLK:CMB
*  2017 12 31 20 15  0.00000000
PG01 -20873.627003 -11014.999817  12323.978715    -20.716663  5  3  5  75       
PG02  12524.981485  21990.156238   9068.327114    240.558757  7  7  7  91       
PG03 -15309.707983  -1872.182573  21597.349422    -17.830387  4  4  6 110       
PG04   7910.304802 -25146.127957  -1764.979999 999999.999999
PG05   5049.007765  21005.314062 -15414.363640    -18.217905  7  8  6 102       
PG06   2259.013280  20189.004736  17129.192351    414.272866  6  6  7 115       
PG07 -15920.368901   3754.877771 -20808.558527    258.078683  4  3  6 115       
PG08 -20086.228733  -6902.907951 -15968.448759    -86.093856  6  5  4 110       
PG09 -24852.676420   8416.670465  -4189.750476    488.804841  6  3  6  81       
PG10  10784.772058 -23861.208380  -3927.422176    138.843574  3  6  4 100       
PG11 -24711.508698  -8850.014962   3014.384467   -732.588807  4  5  7 111       
PG12  13450.987869   5536.324791  22053.944575    357.720296  6  7  5 104       
PG13  12515.898028  12640.733954 -19837.576923    -95.109432  6  7  4 120       
PG14   4444.743813 -15558.194485  21313.145461    -91.607349  4  4  8 105       
PG15  21734.118900   5291.569788 -14808.822580   -357.417105  7 10  5  84       
PG16  -3121.846509 -20467.277625 -16520.334375     34.726337  7  8  7  98       
PG17 -14096.649433  14187.540424  17788.622845   -134.238840  6  6  3 112       
PG18  14949.982315 -17008.364917 -13147.353322    633.574988  6  8  5 103       
PG19  -6653.851089  14766.257449  20816.464185   -466.571556  7  7    121       
PG20  15398.466087   4427.558250 -21335.468400    497.070632  7  7  4 109       
PG21  14251.857280  -6775.510581 -20583.530917   -446.706467  6  6  7 103       
PG22 -13531.620415  -9978.635379  20795.404310   -241.318784  6  2  7 109       
PG23 -25849.249042    201.572032   7263.056183   -219.071993  7  7  7  75       
PG24  21506.636770  12664.427014   9375.733138    -44.221008  6  5  7  99       
PG25  16358.147289  -8962.158425  18657.417559   -514.882451     2  5 101       
PG26   3173.467146 -25464.655869  -6597.810989   -304.398511  6  7  6 108       
PG27  -8164.434747 -13230.550234 -21624.016018    359.813649  3  5  4 100       
PG28 -13697.206422  21785.092011  -6001.271961    675.812564  6  6  2 103       
PG29  26279.600716  -3804.170813    -85.701280    517.543269  6  7  6  66       
PG30  -9211.231320  13011.816712 -21220.528833    116.348238  7  4  3 111       
PG31  -2220.006474 -20539.688257  16501.973510    151.726775  5  6  7 123       
PG32  12547.423573 -15365.052917  17649.715718   -531.890096  5  1  7 102       
*  2017 12 31 20 30  0.00000000
PG01 -21613.984647 -12072.016457   9861.426978    -20.719147  6  3  5  87       
PG02  11572.371420  21391.206702  11548.331130    240.549786  7  7  7  90       
PG03 -14613.294553  -4257.503854  21744.831702    -17.824595  4  4  7 112       
PG04   8123.497513 -25087.109311   1145.976580 999999.999999
PG05   4390.801248  22522.432807 -13297.606015    -18.217253  8  8  7 101       
PG06    752.593206  18796.095544  18771.791326    414.273420  6  6  7 116       
PG07 -17454.157074   1963.190200 -19850.464140    258.073792  4  3  6  98       
PG08 -18243.941203  -7512.069116 -17783.256392    -86.094907  6  4  4 111       
PG09 -25224.901860   8225.691173  -1374.592512    488.808112  6  3  6  76       
PG10  10860.896379 -23198.796267  -6703.578325    138.849075  3  6  4  99       
PG11 -24774.111660  -9340.282599    277.780668   -732.590162  5  5  7 100       
PG12  12573.254858   7921.748510  21861.859398    357.718744  6  8  6 105       
PG13  10236.183000  12991.561573 -20897.492023    -95.109384  6  6  5 120       
PG14   6764.303429 -15844.823865  20448.837107    -91.608165  4  4  7 106       
PG15  20119.624675   6031.521100 -16678.542384   -357.416931  7  9  5  92       
PG16  -2349.748254 -22054.716510 -14421.426317     34.726112  7  8  7 102       
PG17 -15950.262402  14406.804691  15893.541269   -134.236642  6  6  4 101       
PG18  14822.702996 -15260.391480 -15201.029196    633.574915  6  8  5  91       
PG19  -9009.459935  15020.270003  19753.660019   -466.569490  7  7  2 118       
PG20  14922.277089   6786.033952 -21053.811251    497.071268  7  6  3 100       
PG21  15974.626127  -4986.392241 -19848.752074   -446.702941  6  6  7  77       
PG22 -12895.826072 -12191.156897  19993.382009   -241.330556  6  2  7 104       
PG23 -24999.447563   -263.587839   9831.083914   -219.071900  8  7  7  70       
PG24  21987.640213  13505.398376   6776.739117    -44.221571  6  5  7 101       
PG25  15818.712492  -6778.738920  20004.465954   -514.887957  1  3  5  99       
PG26   3592.509145 -25969.654079  -3826.218002   -304.385844  6  6  6 120       
PG27  -5761.791354 -13832.321470 -21998.017757    359.815833  3  5  5  95       
PG28 -13528.689173  20864.618928  -8738.475225    675.816172  6  6  3 113       
PG29  26158.887272  -3587.007189   2808.694276    517.538391  6  7  5  78       
PG30 -10824.738985  11164.057383 -21522.195351    116.345433  7  3  4 102       
PG31   -771.398167 -19161.311508  18243.560778    151.724541  5  6  7 122       
PG32  14448.953597 -15655.673059  15839.436615   -531.891068  5  2  7  98       
*  2017 12 31 20 45  0.00000000
PG01 -22201.649304 -12887.740137   7230.809916    -20.721618  6  4  5  79       
PG02  10391.334727  20670.603550  13837.528231    240.540761  7  7  8  81       
PG03 -14042.887643  -6670.913783  21517.419280    -17.818822  5  4  7 113       
PG04   8257.099152 -24718.313675   4036.811193 999999.999999
PG05   3860.808542  23824.727956 -10950.996780    -18.216392  8  8  7 109       
PG06   -948.701945  17371.581416  20091.914725    414.273938  6  6  7 118       
PG07 -18984.449538    347.259324 -18548.668897    258.068744  5  3  6 113       
PG08 -16256.106652  -8275.866207 -19292.088173    -86.096565  6  4  4 105       
PG09 -25301.467598   7957.963316   1464.199600    488.811351  6  4  6  55       
PG10  10901.365255 -22240.349148  -9363.282594    138.854624  3  6  4  99       
PG11 -24569.388062  -9717.650744  -2463.703441   -732.590833  5  5  7 118       
PG12  11843.550927  10308.496836  21288.232646    357.716834  7  8  6 102       
PG13   7881.187982  13481.342289 -21601.468345    -95.109491  6  4  5 122       
PG14   8954.666405 -16228.471782  19239.655845    -91.608743  4  4  7 107       
PG15  18361.921735   6918.120280 -18269.498623   -357.417046  7  9  4  86       
PG16  -1742.402417 -23443.162004 -12071.415650     34.725420  7  7  7  83       
PG17 -17570.975197  14672.901021  13730.178989   -134.234097  6  6  5 105       
PG18  14735.992137 -13288.462279 -16980.521542    633.574843  6  7  6  84       
PG19 -11205.826897  15374.580621  18344.747845   -466.567414  6  6  3 107       
PG20  14564.689971   9113.198269 -20414.849678    497.072382  8  6  3 103       
PG21  17696.440036  -3353.117006 -18748.338469   -446.699399  6  6  7  73       
PG22 -12383.314263 -14325.594355  18853.942808   -241.342141  7  3  7 106       
PG23 -23910.150092   -852.945908  12235.583672   -219.071829  8  7  7  62       
PG24  22285.280032  14123.673650   4062.646010    -44.222659  7  6  8 106       
PG25  15366.663321  -4440.231727  21000.558831   -514.893487  1  4  6 100       
PG26   3917.329186 -26184.416846   -988.283785   -304.373163  6  6  6 120       
PG27  -3373.469370 -14571.689687 -21995.908205    359.818018  4  4  5  98       
PG28 -13320.707598  19641.319715 -11321.734853    675.819026  7  6  4 113       
PG29  25733.494680  -3287.512284   5654.707296    517.533747  6  8  5  97       
PG30 -12536.186908   9390.337483 -21453.201132    116.342632  7  4  4  99       
PG31    871.680758 -17734.980913  19667.957305    151.722163  4  6  7 123       
PG32  16123.003187 -15978.502392  13756.183209   -531.892091  5  4  7 105       
EOF
